ONEWEB-0298             
1 49087U 21075N   23253.78501726  .00000154  00000+0  36441-3 0  9994
2 49087  87.9227 206.6268 0001719  76.0179 284.1143 13.17653145101554
ONEWEB-0299             
1 49088U 21075P   23253.93902768  .00000055  00000+0  10812-3 0  9997
2 49088  87.9161 206.6198 0001684  72.7079 287.4237 13.17649441101539
ONEWEB-0300             
1 49089U 21075Q   23253.80878036  .00000268  00000+0  70925-3 0  9991
2 49089  87.9057 191.5208 0001794  82.4619 277.6713 13.12442165103663
ONEWEB-0301             
1 49090U 21075R   23253.79392397 -.00000200  00000+0 -59185-3 0  9995
2 49090  87.9060 191.5250 0002043  87.9597 272.1766 13.12439478103020
ONEWEB-0302             
1 49091U 21075S   23253.32486815 -.00000563  00000+0 -15998-2 0  9999
2 49091  87.9058 191.6146 0001968  69.7409 290.3931 13.12444703101951
ONEWEB-0304             
1 49092U 21075T   23254.14362948  .00000010  00000+0 -70176-5 0  9999
2 49092  87.9217 206.5611 0001789  77.1087 283.0244 13.17648984101541
ONEWEB-0305             
1 49093U 21075U   23253.98120953 -.00002001  00000+0 -51870-2 0  9999
2 49093  87.9141 206.6115 0001940  67.2729 292.8607 13.17658768101542
ONEWEB-0308             
1 49094U 21075V   23253.39582340 -.00000930  00000+0 -26216-2 0  9992
2 49094  87.9061 191.6028 0001862  80.9616 279.1723 13.12448216101974
